<?xml version="1.0" encoding="UTF-8"?>
<gpx version="1.1" creator="GRYD fixtures (synthetique)">
  <metadata><name>03_aller_retour</name><desc>Aller-retour de 600 m sur la meme rue. Boucle fermee mais aire quasi nulle : intérieur REFUSE (forme).</desc></metadata>
  <trk><trkseg>
      <trkpt lat="49.4431000" lon="1.0993000"><time>2026-08-03T10:00:00.000Z</time></trkpt>
      <trkpt lat="49.4431000" lon="1.0995763"><time>2026-08-03T10:00:06.000Z</time></trkpt>
      <trkpt lat="49.4431000" lon="1.0998526"><time>2026-08-03T10:00:12.000Z</time></trkpt>
      <trkpt lat="49.4431000" lon="1.1001290"><time>2026-08-03T10:00:18.000Z</time></trkpt>
      <trkpt lat="49.4431000" lon="1.1004053"><time>2026-08-03T10:00:24.000Z</time></trkpt>
      <trkpt lat="49.4431000" lon="1.1006816"><time>2026-08-03T10:00:30.000Z</time></trkpt>
      <trkpt lat="49.4431000" lon="1.1009579"><time>2026-08-03T10:00:36.000Z</time></trkpt>
      <trkpt lat="49.4431000" lon="1.1012342"><time>2026-08-03T10:00:42.000Z</time></trkpt>
      <trkpt lat="49.4431000" lon="1.1015105"><time>2026-08-03T10:00:48.000Z</time></trkpt>
      <trkpt lat="49.4431000" lon="1.1017869"><time>2026-08-03T10:00:54.000Z</time></trkpt>
      <trkpt lat="49.4431000" lon="1.1020632"><time>2026-08-03T10:01:00.000Z</time></trkpt>
      <trkpt lat="49.4431000" lon="1.1023395"><time>2026-08-03T10:01:06.000Z</time></trkpt>
      <trkpt lat="49.4431000" lon="1.1026158"><time>2026-08-03T10:01:12.000Z</time></trkpt>
      <trkpt lat="49.4431000" lon="1.1028921"><time>2026-08-03T10:01:18.000Z</time></trkpt>
      <trkpt lat="49.4431000" lon="1.1031684"><time>2026-08-03T10:01:24.000Z</time></trkpt>
      <trkpt lat="49.4431000" lon="1.1034448"><time>2026-08-03T10:01:30.000Z</time></trkpt>
      <trkpt lat="49.4431000" lon="1.1037211"><time>2026-08-03T10:01:36.000Z</time></trkpt>
      <trkpt lat="49.4431000" lon="1.1039974"><time>2026-08-03T10:01:42.000Z</time></trkpt>
      <trkpt lat="49.4431000" lon="1.1042737"><time>2026-08-03T10:01:48.000Z</time></trkpt>
      <trkpt lat="49.4431000" lon="1.1045500"><time>2026-08-03T10:01:54.000Z</time></trkpt>
      <trkpt lat="49.4431000" lon="1.1048263"><time>2026-08-03T10:02:00.000Z</time></trkpt>
      <trkpt lat="49.4431000" lon="1.1051027"><time>2026-08-03T10:02:06.000Z</time></trkpt>
      <trkpt lat="49.4431000" lon="1.1053790"><time>2026-08-03T10:02:12.000Z</time></trkpt>
      <trkpt lat="49.4431000" lon="1.1056553"><time>2026-08-03T10:02:18.000Z</time></trkpt>
      <trkpt lat="49.4431000" lon="1.1059316"><time>2026-08-03T10:02:24.000Z</time></trkpt>
      <trkpt lat="49.4431000" lon="1.1062079"><time>2026-08-03T10:02:30.000Z</time></trkpt>
      <trkpt lat="49.4431000" lon="1.1064842"><time>2026-08-03T10:02:36.000Z</time></trkpt>
      <trkpt lat="49.4431000" lon="1.1067606"><time>2026-08-03T10:02:42.000Z</time></trkpt>
      <trkpt lat="49.4431000" lon="1.1070369"><time>2026-08-03T10:02:48.000Z</time></trkpt>
      <trkpt lat="49.4431000" lon="1.1073132"><time>2026-08-03T10:02:54.000Z</time></trkpt>
      <trkpt lat="49.4431000" lon="1.1075895"><time>2026-08-03T10:03:00.000Z</time></trkpt>
      <trkpt lat="49.4431045" lon="1.1075895"><time>2026-08-03T10:03:06.000Z</time></trkpt>
      <trkpt lat="49.4431045" lon="1.1073132"><time>2026-08-03T10:03:12.000Z</time></trkpt>
      <trkpt lat="49.4431045" lon="1.1070369"><time>2026-08-03T10:03:18.000Z</time></trkpt>
      <trkpt lat="49.4431045" lon="1.1067606"><time>2026-08-03T10:03:24.000Z</time></trkpt>
      <trkpt lat="49.4431045" lon="1.1064842"><time>2026-08-03T10:03:30.000Z</time></trkpt>
      <trkpt lat="49.4431045" lon="1.1062079"><time>2026-08-03T10:03:36.000Z</time></trkpt>
      <trkpt lat="49.4431045" lon="1.1059316"><time>2026-08-03T10:03:42.000Z</time></trkpt>
      <trkpt lat="49.4431045" lon="1.1056553"><time>2026-08-03T10:03:48.000Z</time></trkpt>
      <trkpt lat="49.4431045" lon="1.1053790"><time>2026-08-03T10:03:54.000Z</time></trkpt>
      <trkpt lat="49.4431045" lon="1.1051027"><time>2026-08-03T10:04:00.000Z</time></trkpt>
      <trkpt lat="49.4431045" lon="1.1048263"><time>2026-08-03T10:04:06.000Z</time></trkpt>
      <trkpt lat="49.4431045" lon="1.1045500"><time>2026-08-03T10:04:12.000Z</time></trkpt>
      <trkpt lat="49.4431045" lon="1.1042737"><time>2026-08-03T10:04:18.000Z</time></trkpt>
      <trkpt lat="49.4431045" lon="1.1039974"><time>2026-08-03T10:04:24.000Z</time></trkpt>
      <trkpt lat="49.4431045" lon="1.1037211"><time>2026-08-03T10:04:30.000Z</time></trkpt>
      <trkpt lat="49.4431045" lon="1.1034448"><time>2026-08-03T10:04:36.000Z</time></trkpt>
      <trkpt lat="49.4431045" lon="1.1031684"><time>2026-08-03T10:04:42.000Z</time></trkpt>
      <trkpt lat="49.4431045" lon="1.1028921"><time>2026-08-03T10:04:48.000Z</time></trkpt>
      <trkpt lat="49.4431045" lon="1.1026158"><time>2026-08-03T10:04:54.000Z</time></trkpt>
      <trkpt lat="49.4431045" lon="1.1023395"><time>2026-08-03T10:05:00.000Z</time></trkpt>
      <trkpt lat="49.4431045" lon="1.1020632"><time>2026-08-03T10:05:06.000Z</time></trkpt>
      <trkpt lat="49.4431045" lon="1.1017869"><time>2026-08-03T10:05:12.000Z</time></trkpt>
      <trkpt lat="49.4431045" lon="1.1015105"><time>2026-08-03T10:05:18.000Z</time></trkpt>
      <trkpt lat="49.4431045" lon="1.1012342"><time>2026-08-03T10:05:24.000Z</time></trkpt>
      <trkpt lat="49.4431045" lon="1.1009579"><time>2026-08-03T10:05:30.000Z</time></trkpt>
      <trkpt lat="49.4431045" lon="1.1006816"><time>2026-08-03T10:05:36.000Z</time></trkpt>
      <trkpt lat="49.4431045" lon="1.1004053"><time>2026-08-03T10:05:42.000Z</time></trkpt>
      <trkpt lat="49.4431045" lon="1.1001290"><time>2026-08-03T10:05:48.000Z</time></trkpt>
      <trkpt lat="49.4431045" lon="1.0998526"><time>2026-08-03T10:05:54.000Z</time></trkpt>
      <trkpt lat="49.4431045" lon="1.0995763"><time>2026-08-03T10:06:00.000Z</time></trkpt>
      <trkpt lat="49.4431045" lon="1.0993000"><time>2026-08-03T10:06:06.000Z</time></trkpt>
  </trkseg></trk>
</gpx>
