<?xml version="1.0" encoding="UTF-8"?>
<gpx version="1.1" creator="GRYD fixtures (synthetique)">
  <metadata><name>04_tram</name><desc>Carre de 400 m parcouru a ~35 km/h (tram). Doit etre REJETE par l allure.</desc></metadata>
  <trk><trkseg>
      <trkpt lat="49.4431000" lon="1.0993000"><time>2026-08-03T10:00:00.000Z</time></trkpt>
      <trkpt lat="49.4431000" lon="1.0995763"><time>2026-08-03T10:00:02.060Z</time></trkpt>
      <trkpt lat="49.4431000" lon="1.0998526"><time>2026-08-03T10:00:04.120Z</time></trkpt>
      <trkpt lat="49.4431000" lon="1.1001290"><time>2026-08-03T10:00:06.180Z</time></trkpt>
      <trkpt lat="49.4431000" lon="1.1004053"><time>2026-08-03T10:00:08.240Z</time></trkpt>
      <trkpt lat="49.4431000" lon="1.1006816"><time>2026-08-03T10:00:10.300Z</time></trkpt>
      <trkpt lat="49.4431000" lon="1.1009579"><time>2026-08-03T10:00:12.360Z</time></trkpt>
      <trkpt lat="49.4431000" lon="1.1012342"><time>2026-08-03T10:00:14.420Z</time></trkpt>
      <trkpt lat="49.4431000" lon="1.1015105"><time>2026-08-03T10:00:16.480Z</time></trkpt>
      <trkpt lat="49.4431000" lon="1.1017869"><time>2026-08-03T10:00:18.540Z</time></trkpt>
      <trkpt lat="49.4431000" lon="1.1020632"><time>2026-08-03T10:00:20.600Z</time></trkpt>
      <trkpt lat="49.4431000" lon="1.1023395"><time>2026-08-03T10:00:22.660Z</time></trkpt>
      <trkpt lat="49.4431000" lon="1.1026158"><time>2026-08-03T10:00:24.720Z</time></trkpt>
      <trkpt lat="49.4431000" lon="1.1028921"><time>2026-08-03T10:00:26.780Z</time></trkpt>
      <trkpt lat="49.4431000" lon="1.1031684"><time>2026-08-03T10:00:28.840Z</time></trkpt>
      <trkpt lat="49.4431000" lon="1.1034448"><time>2026-08-03T10:00:30.900Z</time></trkpt>
      <trkpt lat="49.4431000" lon="1.1037211"><time>2026-08-03T10:00:32.960Z</time></trkpt>
      <trkpt lat="49.4431000" lon="1.1039974"><time>2026-08-03T10:00:35.020Z</time></trkpt>
      <trkpt lat="49.4431000" lon="1.1042737"><time>2026-08-03T10:00:37.080Z</time></trkpt>
      <trkpt lat="49.4431000" lon="1.1045500"><time>2026-08-03T10:00:39.140Z</time></trkpt>
      <trkpt lat="49.4431000" lon="1.1048263"><time>2026-08-03T10:00:41.200Z</time></trkpt>
      <trkpt lat="49.4432797" lon="1.1048263"><time>2026-08-03T10:00:43.260Z</time></trkpt>
      <trkpt lat="49.4434593" lon="1.1048263"><time>2026-08-03T10:00:45.320Z</time></trkpt>
      <trkpt lat="49.4436390" lon="1.1048263"><time>2026-08-03T10:00:47.380Z</time></trkpt>
      <trkpt lat="49.4438186" lon="1.1048263"><time>2026-08-03T10:00:49.440Z</time></trkpt>
      <trkpt lat="49.4439983" lon="1.1048263"><time>2026-08-03T10:00:51.500Z</time></trkpt>
      <trkpt lat="49.4441780" lon="1.1048263"><time>2026-08-03T10:00:53.560Z</time></trkpt>
      <trkpt lat="49.4443576" lon="1.1048263"><time>2026-08-03T10:00:55.620Z</time></trkpt>
      <trkpt lat="49.4445373" lon="1.1048263"><time>2026-08-03T10:00:57.680Z</time></trkpt>
      <trkpt lat="49.4447170" lon="1.1048263"><time>2026-08-03T10:00:59.740Z</time></trkpt>
      <trkpt lat="49.4448966" lon="1.1048263"><time>2026-08-03T10:01:01.800Z</time></trkpt>
      <trkpt lat="49.4450763" lon="1.1048263"><time>2026-08-03T10:01:03.860Z</time></trkpt>
      <trkpt lat="49.4452559" lon="1.1048263"><time>2026-08-03T10:01:05.920Z</time></trkpt>
      <trkpt lat="49.4454356" lon="1.1048263"><time>2026-08-03T10:01:07.980Z</time></trkpt>
      <trkpt lat="49.4456153" lon="1.1048263"><time>2026-08-03T10:01:10.040Z</time></trkpt>
      <trkpt lat="49.4457949" lon="1.1048263"><time>2026-08-03T10:01:12.100Z</time></trkpt>
      <trkpt lat="49.4459746" lon="1.1048263"><time>2026-08-03T10:01:14.160Z</time></trkpt>
      <trkpt lat="49.4461543" lon="1.1048263"><time>2026-08-03T10:01:16.220Z</time></trkpt>
      <trkpt lat="49.4463339" lon="1.1048263"><time>2026-08-03T10:01:18.280Z</time></trkpt>
      <trkpt lat="49.4465136" lon="1.1048263"><time>2026-08-03T10:01:20.340Z</time></trkpt>
      <trkpt lat="49.4466932" lon="1.1048263"><time>2026-08-03T10:01:22.400Z</time></trkpt>
      <trkpt lat="49.4466932" lon="1.1045500"><time>2026-08-03T10:01:24.460Z</time></trkpt>
      <trkpt lat="49.4466932" lon="1.1042737"><time>2026-08-03T10:01:26.520Z</time></trkpt>
      <trkpt lat="49.4466932" lon="1.1039974"><time>2026-08-03T10:01:28.580Z</time></trkpt>
      <trkpt lat="49.4466932" lon="1.1037211"><time>2026-08-03T10:01:30.640Z</time></trkpt>
      <trkpt lat="49.4466932" lon="1.1034448"><time>2026-08-03T10:01:32.700Z</time></trkpt>
      <trkpt lat="49.4466932" lon="1.1031684"><time>2026-08-03T10:01:34.760Z</time></trkpt>
      <trkpt lat="49.4466932" lon="1.1028921"><time>2026-08-03T10:01:36.820Z</time></trkpt>
      <trkpt lat="49.4466932" lon="1.1026158"><time>2026-08-03T10:01:38.880Z</time></trkpt>
      <trkpt lat="49.4466932" lon="1.1023395"><time>2026-08-03T10:01:40.940Z</time></trkpt>
      <trkpt lat="49.4466932" lon="1.1020632"><time>2026-08-03T10:01:43.000Z</time></trkpt>
      <trkpt lat="49.4466932" lon="1.1017869"><time>2026-08-03T10:01:45.060Z</time></trkpt>
      <trkpt lat="49.4466932" lon="1.1015105"><time>2026-08-03T10:01:47.120Z</time></trkpt>
      <trkpt lat="49.4466932" lon="1.1012342"><time>2026-08-03T10:01:49.180Z</time></trkpt>
      <trkpt lat="49.4466932" lon="1.1009579"><time>2026-08-03T10:01:51.240Z</time></trkpt>
      <trkpt lat="49.4466932" lon="1.1006816"><time>2026-08-03T10:01:53.300Z</time></trkpt>
      <trkpt lat="49.4466932" lon="1.1004053"><time>2026-08-03T10:01:55.360Z</time></trkpt>
      <trkpt lat="49.4466932" lon="1.1001290"><time>2026-08-03T10:01:57.420Z</time></trkpt>
      <trkpt lat="49.4466932" lon="1.0998526"><time>2026-08-03T10:01:59.480Z</time></trkpt>
      <trkpt lat="49.4466932" lon="1.0995763"><time>2026-08-03T10:02:01.540Z</time></trkpt>
      <trkpt lat="49.4466932" lon="1.0993000"><time>2026-08-03T10:02:03.600Z</time></trkpt>
      <trkpt lat="49.4465136" lon="1.0993000"><time>2026-08-03T10:02:05.660Z</time></trkpt>
      <trkpt lat="49.4463339" lon="1.0993000"><time>2026-08-03T10:02:07.720Z</time></trkpt>
      <trkpt lat="49.4461543" lon="1.0993000"><time>2026-08-03T10:02:09.780Z</time></trkpt>
      <trkpt lat="49.4459746" lon="1.0993000"><time>2026-08-03T10:02:11.840Z</time></trkpt>
      <trkpt lat="49.4457949" lon="1.0993000"><time>2026-08-03T10:02:13.900Z</time></trkpt>
      <trkpt lat="49.4456153" lon="1.0993000"><time>2026-08-03T10:02:15.960Z</time></trkpt>
      <trkpt lat="49.4454356" lon="1.0993000"><time>2026-08-03T10:02:18.020Z</time></trkpt>
      <trkpt lat="49.4452559" lon="1.0993000"><time>2026-08-03T10:02:20.080Z</time></trkpt>
      <trkpt lat="49.4450763" lon="1.0993000"><time>2026-08-03T10:02:22.140Z</time></trkpt>
      <trkpt lat="49.4448966" lon="1.0993000"><time>2026-08-03T10:02:24.200Z</time></trkpt>
      <trkpt lat="49.4447170" lon="1.0993000"><time>2026-08-03T10:02:26.260Z</time></trkpt>
      <trkpt lat="49.4445373" lon="1.0993000"><time>2026-08-03T10:02:28.320Z</time></trkpt>
      <trkpt lat="49.4443576" lon="1.0993000"><time>2026-08-03T10:02:30.380Z</time></trkpt>
      <trkpt lat="49.4441780" lon="1.0993000"><time>2026-08-03T10:02:32.440Z</time></trkpt>
      <trkpt lat="49.4439983" lon="1.0993000"><time>2026-08-03T10:02:34.500Z</time></trkpt>
      <trkpt lat="49.4438186" lon="1.0993000"><time>2026-08-03T10:02:36.560Z</time></trkpt>
      <trkpt lat="49.4436390" lon="1.0993000"><time>2026-08-03T10:02:38.620Z</time></trkpt>
      <trkpt lat="49.4434593" lon="1.0993000"><time>2026-08-03T10:02:40.680Z</time></trkpt>
      <trkpt lat="49.4432797" lon="1.0993000"><time>2026-08-03T10:02:42.740Z</time></trkpt>
      <trkpt lat="49.4431000" lon="1.0993000"><time>2026-08-03T10:02:44.800Z</time></trkpt>
  </trkseg></trk>
</gpx>
