<?xml version="1.0" encoding="UTF-8"?>
<gpx version="1.1" creator="GRYD fixtures (synthetique)">
  <metadata><name>05_voiture</name><desc>Carre de 800 m a ~70 km/h. Doit etre REJETE par l allure.</desc></metadata>
  <trk><trkseg>
      <trkpt lat="49.4431000" lon="1.0993000"><time>2026-08-03T10:00:00.000Z</time></trkpt>
      <trkpt lat="49.4431000" lon="1.0995763"><time>2026-08-03T10:00:01.030Z</time></trkpt>
      <trkpt lat="49.4431000" lon="1.0998526"><time>2026-08-03T10:00:02.060Z</time></trkpt>
      <trkpt lat="49.4431000" lon="1.1001290"><time>2026-08-03T10:00:03.090Z</time></trkpt>
      <trkpt lat="49.4431000" lon="1.1004053"><time>2026-08-03T10:00:04.120Z</time></trkpt>
      <trkpt lat="49.4431000" lon="1.1006816"><time>2026-08-03T10:00:05.150Z</time></trkpt>
      <trkpt lat="49.4431000" lon="1.1009579"><time>2026-08-03T10:00:06.180Z</time></trkpt>
      <trkpt lat="49.4431000" lon="1.1012342"><time>2026-08-03T10:00:07.210Z</time></trkpt>
      <trkpt lat="49.4431000" lon="1.1015105"><time>2026-08-03T10:00:08.240Z</time></trkpt>
      <trkpt lat="49.4431000" lon="1.1017869"><time>2026-08-03T10:00:09.270Z</time></trkpt>
      <trkpt lat="49.4431000" lon="1.1020632"><time>2026-08-03T10:00:10.300Z</time></trkpt>
      <trkpt lat="49.4431000" lon="1.1023395"><time>2026-08-03T10:00:11.330Z</time></trkpt>
      <trkpt lat="49.4431000" lon="1.1026158"><time>2026-08-03T10:00:12.360Z</time></trkpt>
      <trkpt lat="49.4431000" lon="1.1028921"><time>2026-08-03T10:00:13.390Z</time></trkpt>
      <trkpt lat="49.4431000" lon="1.1031684"><time>2026-08-03T10:00:14.420Z</time></trkpt>
      <trkpt lat="49.4431000" lon="1.1034448"><time>2026-08-03T10:00:15.450Z</time></trkpt>
      <trkpt lat="49.4431000" lon="1.1037211"><time>2026-08-03T10:00:16.480Z</time></trkpt>
      <trkpt lat="49.4431000" lon="1.1039974"><time>2026-08-03T10:00:17.510Z</time></trkpt>
      <trkpt lat="49.4431000" lon="1.1042737"><time>2026-08-03T10:00:18.540Z</time></trkpt>
      <trkpt lat="49.4431000" lon="1.1045500"><time>2026-08-03T10:00:19.570Z</time></trkpt>
      <trkpt lat="49.4431000" lon="1.1048263"><time>2026-08-03T10:00:20.600Z</time></trkpt>
      <trkpt lat="49.4431000" lon="1.1051027"><time>2026-08-03T10:00:21.630Z</time></trkpt>
      <trkpt lat="49.4431000" lon="1.1053790"><time>2026-08-03T10:00:22.660Z</time></trkpt>
      <trkpt lat="49.4431000" lon="1.1056553"><time>2026-08-03T10:00:23.690Z</time></trkpt>
      <trkpt lat="49.4431000" lon="1.1059316"><time>2026-08-03T10:00:24.720Z</time></trkpt>
      <trkpt lat="49.4431000" lon="1.1062079"><time>2026-08-03T10:00:25.750Z</time></trkpt>
      <trkpt lat="49.4431000" lon="1.1064842"><time>2026-08-03T10:00:26.780Z</time></trkpt>
      <trkpt lat="49.4431000" lon="1.1067606"><time>2026-08-03T10:00:27.810Z</time></trkpt>
      <trkpt lat="49.4431000" lon="1.1070369"><time>2026-08-03T10:00:28.840Z</time></trkpt>
      <trkpt lat="49.4431000" lon="1.1073132"><time>2026-08-03T10:00:29.870Z</time></trkpt>
      <trkpt lat="49.4431000" lon="1.1075895"><time>2026-08-03T10:00:30.900Z</time></trkpt>
      <trkpt lat="49.4431000" lon="1.1078658"><time>2026-08-03T10:00:31.930Z</time></trkpt>
      <trkpt lat="49.4431000" lon="1.1081422"><time>2026-08-03T10:00:32.960Z</time></trkpt>
      <trkpt lat="49.4431000" lon="1.1084185"><time>2026-08-03T10:00:33.990Z</time></trkpt>
      <trkpt lat="49.4431000" lon="1.1086948"><time>2026-08-03T10:00:35.020Z</time></trkpt>
      <trkpt lat="49.4431000" lon="1.1089711"><time>2026-08-03T10:00:36.050Z</time></trkpt>
      <trkpt lat="49.4431000" lon="1.1092474"><time>2026-08-03T10:00:37.080Z</time></trkpt>
      <trkpt lat="49.4431000" lon="1.1095237"><time>2026-08-03T10:00:38.110Z</time></trkpt>
      <trkpt lat="49.4431000" lon="1.1098001"><time>2026-08-03T10:00:39.140Z</time></trkpt>
      <trkpt lat="49.4431000" lon="1.1100764"><time>2026-08-03T10:00:40.170Z</time></trkpt>
      <trkpt lat="49.4431000" lon="1.1103527"><time>2026-08-03T10:00:41.200Z</time></trkpt>
      <trkpt lat="49.4432797" lon="1.1103527"><time>2026-08-03T10:00:42.230Z</time></trkpt>
      <trkpt lat="49.4434593" lon="1.1103527"><time>2026-08-03T10:00:43.260Z</time></trkpt>
      <trkpt lat="49.4436390" lon="1.1103527"><time>2026-08-03T10:00:44.290Z</time></trkpt>
      <trkpt lat="49.4438186" lon="1.1103527"><time>2026-08-03T10:00:45.320Z</time></trkpt>
      <trkpt lat="49.4439983" lon="1.1103527"><time>2026-08-03T10:00:46.350Z</time></trkpt>
      <trkpt lat="49.4441780" lon="1.1103527"><time>2026-08-03T10:00:47.380Z</time></trkpt>
      <trkpt lat="49.4443576" lon="1.1103527"><time>2026-08-03T10:00:48.410Z</time></trkpt>
      <trkpt lat="49.4445373" lon="1.1103527"><time>2026-08-03T10:00:49.440Z</time></trkpt>
      <trkpt lat="49.4447170" lon="1.1103527"><time>2026-08-03T10:00:50.470Z</time></trkpt>
      <trkpt lat="49.4448966" lon="1.1103527"><time>2026-08-03T10:00:51.500Z</time></trkpt>
      <trkpt lat="49.4450763" lon="1.1103527"><time>2026-08-03T10:00:52.530Z</time></trkpt>
      <trkpt lat="49.4452559" lon="1.1103527"><time>2026-08-03T10:00:53.560Z</time></trkpt>
      <trkpt lat="49.4454356" lon="1.1103527"><time>2026-08-03T10:00:54.590Z</time></trkpt>
      <trkpt lat="49.4456153" lon="1.1103527"><time>2026-08-03T10:00:55.620Z</time></trkpt>
      <trkpt lat="49.4457949" lon="1.1103527"><time>2026-08-03T10:00:56.650Z</time></trkpt>
      <trkpt lat="49.4459746" lon="1.1103527"><time>2026-08-03T10:00:57.680Z</time></trkpt>
      <trkpt lat="49.4461543" lon="1.1103527"><time>2026-08-03T10:00:58.710Z</time></trkpt>
      <trkpt lat="49.4463339" lon="1.1103527"><time>2026-08-03T10:00:59.740Z</time></trkpt>
      <trkpt lat="49.4465136" lon="1.1103527"><time>2026-08-03T10:01:00.770Z</time></trkpt>
      <trkpt lat="49.4466932" lon="1.1103527"><time>2026-08-03T10:01:01.800Z</time></trkpt>
      <trkpt lat="49.4468729" lon="1.1103527"><time>2026-08-03T10:01:02.830Z</time></trkpt>
      <trkpt lat="49.4470526" lon="1.1103527"><time>2026-08-03T10:01:03.860Z</time></trkpt>
      <trkpt lat="49.4472322" lon="1.1103527"><time>2026-08-03T10:01:04.890Z</time></trkpt>
      <trkpt lat="49.4474119" lon="1.1103527"><time>2026-08-03T10:01:05.920Z</time></trkpt>
      <trkpt lat="49.4475916" lon="1.1103527"><time>2026-08-03T10:01:06.950Z</time></trkpt>
      <trkpt lat="49.4477712" lon="1.1103527"><time>2026-08-03T10:01:07.980Z</time></trkpt>
      <trkpt lat="49.4479509" lon="1.1103527"><time>2026-08-03T10:01:09.010Z</time></trkpt>
      <trkpt lat="49.4481305" lon="1.1103527"><time>2026-08-03T10:01:10.040Z</time></trkpt>
      <trkpt lat="49.4483102" lon="1.1103527"><time>2026-08-03T10:01:11.070Z</time></trkpt>
      <trkpt lat="49.4484899" lon="1.1103527"><time>2026-08-03T10:01:12.100Z</time></trkpt>
      <trkpt lat="49.4486695" lon="1.1103527"><time>2026-08-03T10:01:13.130Z</time></trkpt>
      <trkpt lat="49.4488492" lon="1.1103527"><time>2026-08-03T10:01:14.160Z</time></trkpt>
      <trkpt lat="49.4490289" lon="1.1103527"><time>2026-08-03T10:01:15.190Z</time></trkpt>
      <trkpt lat="49.4492085" lon="1.1103527"><time>2026-08-03T10:01:16.220Z</time></trkpt>
      <trkpt lat="49.4493882" lon="1.1103527"><time>2026-08-03T10:01:17.250Z</time></trkpt>
      <trkpt lat="49.4495678" lon="1.1103527"><time>2026-08-03T10:01:18.280Z</time></trkpt>
      <trkpt lat="49.4497475" lon="1.1103527"><time>2026-08-03T10:01:19.310Z</time></trkpt>
      <trkpt lat="49.4499272" lon="1.1103527"><time>2026-08-03T10:01:20.340Z</time></trkpt>
      <trkpt lat="49.4501068" lon="1.1103527"><time>2026-08-03T10:01:21.370Z</time></trkpt>
      <trkpt lat="49.4502865" lon="1.1103527"><time>2026-08-03T10:01:22.400Z</time></trkpt>
      <trkpt lat="49.4502865" lon="1.1100764"><time>2026-08-03T10:01:23.430Z</time></trkpt>
      <trkpt lat="49.4502865" lon="1.1098001"><time>2026-08-03T10:01:24.460Z</time></trkpt>
      <trkpt lat="49.4502865" lon="1.1095237"><time>2026-08-03T10:01:25.490Z</time></trkpt>
      <trkpt lat="49.4502865" lon="1.1092474"><time>2026-08-03T10:01:26.520Z</time></trkpt>
      <trkpt lat="49.4502865" lon="1.1089711"><time>2026-08-03T10:01:27.550Z</time></trkpt>
      <trkpt lat="49.4502865" lon="1.1086948"><time>2026-08-03T10:01:28.580Z</time></trkpt>
      <trkpt lat="49.4502865" lon="1.1084185"><time>2026-08-03T10:01:29.610Z</time></trkpt>
      <trkpt lat="49.4502865" lon="1.1081422"><time>2026-08-03T10:01:30.640Z</time></trkpt>
      <trkpt lat="49.4502865" lon="1.1078658"><time>2026-08-03T10:01:31.670Z</time></trkpt>
      <trkpt lat="49.4502865" lon="1.1075895"><time>2026-08-03T10:01:32.700Z</time></trkpt>
      <trkpt lat="49.4502865" lon="1.1073132"><time>2026-08-03T10:01:33.730Z</time></trkpt>
      <trkpt lat="49.4502865" lon="1.1070369"><time>2026-08-03T10:01:34.760Z</time></trkpt>
      <trkpt lat="49.4502865" lon="1.1067606"><time>2026-08-03T10:01:35.790Z</time></trkpt>
      <trkpt lat="49.4502865" lon="1.1064842"><time>2026-08-03T10:01:36.820Z</time></trkpt>
      <trkpt lat="49.4502865" lon="1.1062079"><time>2026-08-03T10:01:37.850Z</time></trkpt>
      <trkpt lat="49.4502865" lon="1.1059316"><time>2026-08-03T10:01:38.880Z</time></trkpt>
      <trkpt lat="49.4502865" lon="1.1056553"><time>2026-08-03T10:01:39.910Z</time></trkpt>
      <trkpt lat="49.4502865" lon="1.1053790"><time>2026-08-03T10:01:40.940Z</time></trkpt>
      <trkpt lat="49.4502865" lon="1.1051027"><time>2026-08-03T10:01:41.970Z</time></trkpt>
      <trkpt lat="49.4502865" lon="1.1048263"><time>2026-08-03T10:01:43.000Z</time></trkpt>
      <trkpt lat="49.4502865" lon="1.1045500"><time>2026-08-03T10:01:44.030Z</time></trkpt>
      <trkpt lat="49.4502865" lon="1.1042737"><time>2026-08-03T10:01:45.060Z</time></trkpt>
      <trkpt lat="49.4502865" lon="1.1039974"><time>2026-08-03T10:01:46.090Z</time></trkpt>
      <trkpt lat="49.4502865" lon="1.1037211"><time>2026-08-03T10:01:47.120Z</time></trkpt>
      <trkpt lat="49.4502865" lon="1.1034448"><time>2026-08-03T10:01:48.150Z</time></trkpt>
      <trkpt lat="49.4502865" lon="1.1031684"><time>2026-08-03T10:01:49.180Z</time></trkpt>
      <trkpt lat="49.4502865" lon="1.1028921"><time>2026-08-03T10:01:50.210Z</time></trkpt>
      <trkpt lat="49.4502865" lon="1.1026158"><time>2026-08-03T10:01:51.240Z</time></trkpt>
      <trkpt lat="49.4502865" lon="1.1023395"><time>2026-08-03T10:01:52.270Z</time></trkpt>
      <trkpt lat="49.4502865" lon="1.1020632"><time>2026-08-03T10:01:53.300Z</time></trkpt>
      <trkpt lat="49.4502865" lon="1.1017869"><time>2026-08-03T10:01:54.330Z</time></trkpt>
      <trkpt lat="49.4502865" lon="1.1015105"><time>2026-08-03T10:01:55.360Z</time></trkpt>
      <trkpt lat="49.4502865" lon="1.1012342"><time>2026-08-03T10:01:56.390Z</time></trkpt>
      <trkpt lat="49.4502865" lon="1.1009579"><time>2026-08-03T10:01:57.420Z</time></trkpt>
      <trkpt lat="49.4502865" lon="1.1006816"><time>2026-08-03T10:01:58.450Z</time></trkpt>
      <trkpt lat="49.4502865" lon="1.1004053"><time>2026-08-03T10:01:59.480Z</time></trkpt>
      <trkpt lat="49.4502865" lon="1.1001290"><time>2026-08-03T10:02:00.510Z</time></trkpt>
      <trkpt lat="49.4502865" lon="1.0998526"><time>2026-08-03T10:02:01.540Z</time></trkpt>
      <trkpt lat="49.4502865" lon="1.0995763"><time>2026-08-03T10:02:02.570Z</time></trkpt>
      <trkpt lat="49.4502865" lon="1.0993000"><time>2026-08-03T10:02:03.600Z</time></trkpt>
      <trkpt lat="49.4501068" lon="1.0993000"><time>2026-08-03T10:02:04.630Z</time></trkpt>
      <trkpt lat="49.4499272" lon="1.0993000"><time>2026-08-03T10:02:05.660Z</time></trkpt>
      <trkpt lat="49.4497475" lon="1.0993000"><time>2026-08-03T10:02:06.690Z</time></trkpt>
      <trkpt lat="49.4495678" lon="1.0993000"><time>2026-08-03T10:02:07.720Z</time></trkpt>
      <trkpt lat="49.4493882" lon="1.0993000"><time>2026-08-03T10:02:08.750Z</time></trkpt>
      <trkpt lat="49.4492085" lon="1.0993000"><time>2026-08-03T10:02:09.780Z</time></trkpt>
      <trkpt lat="49.4490289" lon="1.0993000"><time>2026-08-03T10:02:10.810Z</time></trkpt>
      <trkpt lat="49.4488492" lon="1.0993000"><time>2026-08-03T10:02:11.840Z</time></trkpt>
      <trkpt lat="49.4486695" lon="1.0993000"><time>2026-08-03T10:02:12.870Z</time></trkpt>
      <trkpt lat="49.4484899" lon="1.0993000"><time>2026-08-03T10:02:13.900Z</time></trkpt>
      <trkpt lat="49.4483102" lon="1.0993000"><time>2026-08-03T10:02:14.930Z</time></trkpt>
      <trkpt lat="49.4481305" lon="1.0993000"><time>2026-08-03T10:02:15.960Z</time></trkpt>
      <trkpt lat="49.4479509" lon="1.0993000"><time>2026-08-03T10:02:16.990Z</time></trkpt>
      <trkpt lat="49.4477712" lon="1.0993000"><time>2026-08-03T10:02:18.020Z</time></trkpt>
      <trkpt lat="49.4475916" lon="1.0993000"><time>2026-08-03T10:02:19.050Z</time></trkpt>
      <trkpt lat="49.4474119" lon="1.0993000"><time>2026-08-03T10:02:20.080Z</time></trkpt>
      <trkpt lat="49.4472322" lon="1.0993000"><time>2026-08-03T10:02:21.110Z</time></trkpt>
      <trkpt lat="49.4470526" lon="1.0993000"><time>2026-08-03T10:02:22.140Z</time></trkpt>
      <trkpt lat="49.4468729" lon="1.0993000"><time>2026-08-03T10:02:23.170Z</time></trkpt>
      <trkpt lat="49.4466932" lon="1.0993000"><time>2026-08-03T10:02:24.200Z</time></trkpt>
      <trkpt lat="49.4465136" lon="1.0993000"><time>2026-08-03T10:02:25.230Z</time></trkpt>
      <trkpt lat="49.4463339" lon="1.0993000"><time>2026-08-03T10:02:26.260Z</time></trkpt>
      <trkpt lat="49.4461543" lon="1.0993000"><time>2026-08-03T10:02:27.290Z</time></trkpt>
      <trkpt lat="49.4459746" lon="1.0993000"><time>2026-08-03T10:02:28.320Z</time></trkpt>
      <trkpt lat="49.4457949" lon="1.0993000"><time>2026-08-03T10:02:29.350Z</time></trkpt>
      <trkpt lat="49.4456153" lon="1.0993000"><time>2026-08-03T10:02:30.380Z</time></trkpt>
      <trkpt lat="49.4454356" lon="1.0993000"><time>2026-08-03T10:02:31.410Z</time></trkpt>
      <trkpt lat="49.4452559" lon="1.0993000"><time>2026-08-03T10:02:32.440Z</time></trkpt>
      <trkpt lat="49.4450763" lon="1.0993000"><time>2026-08-03T10:02:33.470Z</time></trkpt>
      <trkpt lat="49.4448966" lon="1.0993000"><time>2026-08-03T10:02:34.500Z</time></trkpt>
      <trkpt lat="49.4447170" lon="1.0993000"><time>2026-08-03T10:02:35.530Z</time></trkpt>
      <trkpt lat="49.4445373" lon="1.0993000"><time>2026-08-03T10:02:36.560Z</time></trkpt>
      <trkpt lat="49.4443576" lon="1.0993000"><time>2026-08-03T10:02:37.590Z</time></trkpt>
      <trkpt lat="49.4441780" lon="1.0993000"><time>2026-08-03T10:02:38.620Z</time></trkpt>
      <trkpt lat="49.4439983" lon="1.0993000"><time>2026-08-03T10:02:39.650Z</time></trkpt>
      <trkpt lat="49.4438186" lon="1.0993000"><time>2026-08-03T10:02:40.680Z</time></trkpt>
      <trkpt lat="49.4436390" lon="1.0993000"><time>2026-08-03T10:02:41.710Z</time></trkpt>
      <trkpt lat="49.4434593" lon="1.0993000"><time>2026-08-03T10:02:42.740Z</time></trkpt>
      <trkpt lat="49.4432797" lon="1.0993000"><time>2026-08-03T10:02:43.770Z</time></trkpt>
      <trkpt lat="49.4431000" lon="1.0993000"><time>2026-08-03T10:02:44.800Z</time></trkpt>
  </trkseg></trk>
</gpx>
