<?xml version="1.0" encoding="UTF-8"?>
<gpx version="1.1" creator="GRYD fixtures (synthetique)">
  <metadata><name>06_gps_bruite</name><desc>Carre de 400 m avec bruit urbain +/-6 m. Doit CAPTURER apres nettoyage.</desc></metadata>
  <trk><trkseg>
      <trkpt lat="49.4430488" lon="1.0993231"><time>2026-08-03T10:00:00.000Z</time></trkpt>
      <trkpt lat="49.4430702" lon="1.0995390"><time>2026-08-03T10:00:06.000Z</time></trkpt>
      <trkpt lat="49.4431190" lon="1.0998918"><time>2026-08-03T10:00:12.000Z</time></trkpt>
      <trkpt lat="49.4430555" lon="1.1001940"><time>2026-08-03T10:00:18.000Z</time></trkpt>
      <trkpt lat="49.4430493" lon="1.1003923"><time>2026-08-03T10:00:24.000Z</time></trkpt>
      <trkpt lat="49.4431006" lon="1.1006349"><time>2026-08-03T10:00:30.000Z</time></trkpt>
      <trkpt lat="49.4430675" lon="1.1008794"><time>2026-08-03T10:00:36.000Z</time></trkpt>
      <trkpt lat="49.4431048" lon="1.1012591"><time>2026-08-03T10:00:42.000Z</time></trkpt>
      <trkpt lat="49.4431096" lon="1.1014642"><time>2026-08-03T10:00:48.000Z</time></trkpt>
      <trkpt lat="49.4430468" lon="1.1018382"><time>2026-08-03T10:00:54.000Z</time></trkpt>
      <trkpt lat="49.4431214" lon="1.1021139"><time>2026-08-03T10:01:00.000Z</time></trkpt>
      <trkpt lat="49.4430629" lon="1.1023130"><time>2026-08-03T10:01:06.000Z</time></trkpt>
      <trkpt lat="49.4430824" lon="1.1026916"><time>2026-08-03T10:01:12.000Z</time></trkpt>
      <trkpt lat="49.4430565" lon="1.1028246"><time>2026-08-03T10:01:18.000Z</time></trkpt>
      <trkpt lat="49.4431112" lon="1.1032261"><time>2026-08-03T10:01:24.000Z</time></trkpt>
      <trkpt lat="49.4431248" lon="1.1034957"><time>2026-08-03T10:01:30.000Z</time></trkpt>
      <trkpt lat="49.4431510" lon="1.1037271"><time>2026-08-03T10:01:36.000Z</time></trkpt>
      <trkpt lat="49.4431056" lon="1.1039773"><time>2026-08-03T10:01:42.000Z</time></trkpt>
      <trkpt lat="49.4431128" lon="1.1043283"><time>2026-08-03T10:01:48.000Z</time></trkpt>
      <trkpt lat="49.4431083" lon="1.1046100"><time>2026-08-03T10:01:54.000Z</time></trkpt>
      <trkpt lat="49.4430510" lon="1.1048603"><time>2026-08-03T10:02:00.000Z</time></trkpt>
      <trkpt lat="49.4432570" lon="1.1047812"><time>2026-08-03T10:02:06.000Z</time></trkpt>
      <trkpt lat="49.4434305" lon="1.1047567"><time>2026-08-03T10:02:12.000Z</time></trkpt>
      <trkpt lat="49.4436151" lon="1.1047602"><time>2026-08-03T10:02:18.000Z</time></trkpt>
      <trkpt lat="49.4438041" lon="1.1048488"><time>2026-08-03T10:02:24.000Z</time></trkpt>
      <trkpt lat="49.4439670" lon="1.1048048"><time>2026-08-03T10:02:30.000Z</time></trkpt>
      <trkpt lat="49.4442250" lon="1.1047877"><time>2026-08-03T10:02:36.000Z</time></trkpt>
      <trkpt lat="49.4443694" lon="1.1048509"><time>2026-08-03T10:02:42.000Z</time></trkpt>
      <trkpt lat="49.4445620" lon="1.1047718"><time>2026-08-03T10:02:48.000Z</time></trkpt>
      <trkpt lat="49.4447040" lon="1.1047705"><time>2026-08-03T10:02:54.000Z</time></trkpt>
      <trkpt lat="49.4449117" lon="1.1049075"><time>2026-08-03T10:03:00.000Z</time></trkpt>
      <trkpt lat="49.4450962" lon="1.1048358"><time>2026-08-03T10:03:06.000Z</time></trkpt>
      <trkpt lat="49.4452857" lon="1.1048832"><time>2026-08-03T10:03:12.000Z</time></trkpt>
      <trkpt lat="49.4453852" lon="1.1047814"><time>2026-08-03T10:03:18.000Z</time></trkpt>
      <trkpt lat="49.4455902" lon="1.1047957"><time>2026-08-03T10:03:24.000Z</time></trkpt>
      <trkpt lat="49.4458427" lon="1.1047784"><time>2026-08-03T10:03:30.000Z</time></trkpt>
      <trkpt lat="49.4459546" lon="1.1048887"><time>2026-08-03T10:03:36.000Z</time></trkpt>
      <trkpt lat="49.4461430" lon="1.1048521"><time>2026-08-03T10:03:42.000Z</time></trkpt>
      <trkpt lat="49.4463295" lon="1.1048951"><time>2026-08-03T10:03:48.000Z</time></trkpt>
      <trkpt lat="49.4464863" lon="1.1047874"><time>2026-08-03T10:03:54.000Z</time></trkpt>
      <trkpt lat="49.4466677" lon="1.1048365"><time>2026-08-03T10:04:00.000Z</time></trkpt>
      <trkpt lat="49.4467361" lon="1.1045641"><time>2026-08-03T10:04:06.000Z</time></trkpt>
      <trkpt lat="49.4466630" lon="1.1042570"><time>2026-08-03T10:04:12.000Z</time></trkpt>
      <trkpt lat="49.4466943" lon="1.1040799"><time>2026-08-03T10:04:18.000Z</time></trkpt>
      <trkpt lat="49.4466444" lon="1.1036533"><time>2026-08-03T10:04:24.000Z</time></trkpt>
      <trkpt lat="49.4467070" lon="1.1033800"><time>2026-08-03T10:04:30.000Z</time></trkpt>
      <trkpt lat="49.4466849" lon="1.1032169"><time>2026-08-03T10:04:36.000Z</time></trkpt>
      <trkpt lat="49.4466805" lon="1.1028198"><time>2026-08-03T10:04:42.000Z</time></trkpt>
      <trkpt lat="49.4466964" lon="1.1026981"><time>2026-08-03T10:04:48.000Z</time></trkpt>
      <trkpt lat="49.4467321" lon="1.1024176"><time>2026-08-03T10:04:54.000Z</time></trkpt>
      <trkpt lat="49.4467170" lon="1.1019822"><time>2026-08-03T10:05:00.000Z</time></trkpt>
      <trkpt lat="49.4466972" lon="1.1018170"><time>2026-08-03T10:05:06.000Z</time></trkpt>
      <trkpt lat="49.4467084" lon="1.1014719"><time>2026-08-03T10:05:12.000Z</time></trkpt>
      <trkpt lat="49.4466862" lon="1.1011698"><time>2026-08-03T10:05:18.000Z</time></trkpt>
      <trkpt lat="49.4467422" lon="1.1009502"><time>2026-08-03T10:05:24.000Z</time></trkpt>
      <trkpt lat="49.4466677" lon="1.1007439"><time>2026-08-03T10:05:30.000Z</time></trkpt>
      <trkpt lat="49.4466586" lon="1.1004054"><time>2026-08-03T10:05:36.000Z</time></trkpt>
      <trkpt lat="49.4467332" lon="1.1001974"><time>2026-08-03T10:05:42.000Z</time></trkpt>
      <trkpt lat="49.4467082" lon="1.0998192"><time>2026-08-03T10:05:48.000Z</time></trkpt>
      <trkpt lat="49.4466558" lon="1.0995944"><time>2026-08-03T10:05:54.000Z</time></trkpt>
      <trkpt lat="49.4466975" lon="1.0993435"><time>2026-08-03T10:06:00.000Z</time></trkpt>
      <trkpt lat="49.4465169" lon="1.0993462"><time>2026-08-03T10:06:06.000Z</time></trkpt>
      <trkpt lat="49.4463150" lon="1.0992172"><time>2026-08-03T10:06:12.000Z</time></trkpt>
      <trkpt lat="49.4462005" lon="1.0992203"><time>2026-08-03T10:06:18.000Z</time></trkpt>
      <trkpt lat="49.4460103" lon="1.0993628"><time>2026-08-03T10:06:24.000Z</time></trkpt>
      <trkpt lat="49.4457473" lon="1.0992681"><time>2026-08-03T10:06:30.000Z</time></trkpt>
      <trkpt lat="49.4456635" lon="1.0993627"><time>2026-08-03T10:06:36.000Z</time></trkpt>
      <trkpt lat="49.4454341" lon="1.0992313"><time>2026-08-03T10:06:42.000Z</time></trkpt>
      <trkpt lat="49.4452840" lon="1.0992286"><time>2026-08-03T10:06:48.000Z</time></trkpt>
      <trkpt lat="49.4450362" lon="1.0993441"><time>2026-08-03T10:06:54.000Z</time></trkpt>
      <trkpt lat="49.4449020" lon="1.0992959"><time>2026-08-03T10:07:00.000Z</time></trkpt>
      <trkpt lat="49.4447571" lon="1.0992610"><time>2026-08-03T10:07:06.000Z</time></trkpt>
      <trkpt lat="49.4445062" lon="1.0992873"><time>2026-08-03T10:07:12.000Z</time></trkpt>
      <trkpt lat="49.4443824" lon="1.0993065"><time>2026-08-03T10:07:18.000Z</time></trkpt>
      <trkpt lat="49.4441577" lon="1.0992505"><time>2026-08-03T10:07:24.000Z</time></trkpt>
      <trkpt lat="49.4440145" lon="1.0993821"><time>2026-08-03T10:07:30.000Z</time></trkpt>
      <trkpt lat="49.4438205" lon="1.0992897"><time>2026-08-03T10:07:36.000Z</time></trkpt>
      <trkpt lat="49.4436093" lon="1.0992372"><time>2026-08-03T10:07:42.000Z</time></trkpt>
      <trkpt lat="49.4434688" lon="1.0992732"><time>2026-08-03T10:07:48.000Z</time></trkpt>
      <trkpt lat="49.4432495" lon="1.0992553"><time>2026-08-03T10:07:54.000Z</time></trkpt>
      <trkpt lat="49.4431141" lon="1.0992289"><time>2026-08-03T10:08:00.000Z</time></trkpt>
  </trkseg></trk>
</gpx>
