<?xml version="1.0" encoding="UTF-8"?>
<gpx version="1.1" creator="GRYD fixtures (synthetique)">
  <metadata><name>07_boucle_minuscule</name><desc>Carre de 25 m de cote. Aire tres sous le plancher : AUCUNE zone.</desc></metadata>
  <trk><trkseg>
      <trkpt lat="49.4431000" lon="1.0993000"><time>2026-08-03T10:00:00.000Z</time></trkpt>
      <trkpt lat="49.4431000" lon="1.0993691"><time>2026-08-03T10:00:03.000Z</time></trkpt>
      <trkpt lat="49.4431000" lon="1.0994382"><time>2026-08-03T10:00:06.000Z</time></trkpt>
      <trkpt lat="49.4431000" lon="1.0995072"><time>2026-08-03T10:00:09.000Z</time></trkpt>
      <trkpt lat="49.4431000" lon="1.0995763"><time>2026-08-03T10:00:12.000Z</time></trkpt>
      <trkpt lat="49.4431000" lon="1.0996454"><time>2026-08-03T10:00:15.000Z</time></trkpt>
      <trkpt lat="49.4431449" lon="1.0996454"><time>2026-08-03T10:00:18.000Z</time></trkpt>
      <trkpt lat="49.4431898" lon="1.0996454"><time>2026-08-03T10:00:21.000Z</time></trkpt>
      <trkpt lat="49.4432347" lon="1.0996454"><time>2026-08-03T10:00:24.000Z</time></trkpt>
      <trkpt lat="49.4432797" lon="1.0996454"><time>2026-08-03T10:00:27.000Z</time></trkpt>
      <trkpt lat="49.4433246" lon="1.0996454"><time>2026-08-03T10:00:30.000Z</time></trkpt>
      <trkpt lat="49.4433246" lon="1.0995763"><time>2026-08-03T10:00:33.000Z</time></trkpt>
      <trkpt lat="49.4433246" lon="1.0995072"><time>2026-08-03T10:00:36.000Z</time></trkpt>
      <trkpt lat="49.4433246" lon="1.0994382"><time>2026-08-03T10:00:39.000Z</time></trkpt>
      <trkpt lat="49.4433246" lon="1.0993691"><time>2026-08-03T10:00:42.000Z</time></trkpt>
      <trkpt lat="49.4433246" lon="1.0993000"><time>2026-08-03T10:00:45.000Z</time></trkpt>
      <trkpt lat="49.4432797" lon="1.0993000"><time>2026-08-03T10:00:48.000Z</time></trkpt>
      <trkpt lat="49.4432347" lon="1.0993000"><time>2026-08-03T10:00:51.000Z</time></trkpt>
      <trkpt lat="49.4431898" lon="1.0993000"><time>2026-08-03T10:00:54.000Z</time></trkpt>
      <trkpt lat="49.4431449" lon="1.0993000"><time>2026-08-03T10:00:57.000Z</time></trkpt>
      <trkpt lat="49.4431000" lon="1.0993000"><time>2026-08-03T10:01:00.000Z</time></trkpt>
  </trkseg></trk>
</gpx>
